NORAD_CAT_ID,OBJECT_NAME,OBJECT_TYPE,EPOCH,MEAN_MOTION,ECCENTRICITY,INCLINATION,RA_OF_ASC_NODE,ARG_OF_PERICENTER,MEAN_ANOMALY,BSTAR,MEAN_MOTION_DOT,MEAN_MOTION_DDOT,TLE_LINE0,TLE_LINE1,TLE_LINE2,SEMIMAJOR_AXIS,PERIOD,APOGEE,PERIGEE,DECAYED
54798.0,STARLINK-5420,PAYLOAD,2024-02-16 00:06:55,15.08836356,0.0001316,53.2171,157.8207,78.3505,281.7635,0.00020314,2.946e-05,0.0,0 STARLINK-5420,1 54798U 22175AS  24047.00480894  .00002946  00000-0  20314-3 0  9994,2 54798  53.2171 157.8207 0001316  78.3505 281.7635 15.08836356 64482,6917.892,95.438,540.667,538.846,0.0
54798.0,STARLINK-5420,PAYLOAD,2024-02-16 14:25:23,15.088535,0.0001245,53.217,155.1481,86.3692,273.7442,-3.2457e-05,-8.05e-06,0.0,0 STARLINK-5420,1 54798U 22175AS  24047.60096220 -.00000805  00000-0 -32457-4 0  9992,2 54798  53.2170 155.1481 0001245  86.3692 273.7442 15.08853500 66730,6917.839,95.437,540.565,538.843,0.0
54798.0,STARLINK-5420,PAYLOAD,2024-02-17 11:05:24,15.08831605,0.0001449,53.2177,151.2816,80.4919,279.6237,4.0769e-05,3.61e-06,0.0,0 STARLINK-5420,1 54798U 22175AS  24048.46209435  .00000361  00000-0  40769-4 0  9991,2 54798  53.2177 151.2816 0001449  80.4919 279.6237 15.08831605 64703,6917.906,95.438,540.773,538.769,0.0
54798.0,STARLINK-5420,PAYLOAD,2024-02-17 14:16:10,15.08835928,0.000169,53.2187,150.6857,88.5879,271.5307,5.156e-05,5.33e-06,0.0,0 STARLINK-5420,1 54798U 22175AS  24048.59457173  .00000533  00000-0  51560-4 0  9991,2 54798  53.2187 150.6857 0001690  88.5879 271.5307 15.08835928 66886,6917.893,95.438,540.927,538.589,0.0
54798.0,STARLINK-5420,PAYLOAD,2024-02-17 23:48:29,15.088399,0.0001511,53.2181,148.9018,92.1653,267.9512,2.8961e-05,1.73e-06,0.0,0 STARLINK-5420,1 54798U 22175AS  24048.99200918  .00000173  00000-0  28961-4 0  9997,2 54798  53.2181 148.9018 0001511  92.1653 267.9512 15.08839900 64780,6917.881,95.438,540.791,538.7,0.0
54798.0,STARLINK-5420,PAYLOAD,2024-02-18 14:06:56,15.08856937,0.0001407,53.2172,146.2235,86.4515,273.6638,5.8486e-05,6.43e-06,0.0,0 STARLINK-5420,1 54798U 22175AS  24049.58815781  .00000643  00000-0  58486-4 0  9990,2 54798  53.2172 146.2235 0001407  86.4515 273.6638 15.08856937 67032,6917.829,95.436,540.667,538.72,0.0
54798.0,STARLINK-5420,PAYLOAD,2024-02-19 12:22:22,15.08835843,0.0001792,53.2181,142.0626,87.686,272.4337,7.1218e-05,8.45e-06,0.0,0 STARLINK-5420,1 54798U 22175AS  24050.51553397  .00000845  00000-0  71218-4 0  9999,2 54798  53.2181 142.0626 0001792  87.6860 272.4337 15.08835843 65015,6917.893,95.438,540.998,538.518,0.0
54798.0,STARLINK-5420,PAYLOAD,2024-02-20 12:13:08,15.08839422,0.0001518,53.2181,137.6012,92.4009,267.7157,0.00013068,1.792e-05,0.0,0 STARLINK-5420,1 54798U 22175AS  24051.50912936  .00001792  00000-0  13068-3 0  9997,2 54798  53.2181 137.6012 0001518  92.4009 267.7157 15.08839422 67329,6917.882,95.438,540.797,538.697,0.0
54798.0,STARLINK-5420,PAYLOAD,2024-02-21 12:03:55,15.0884776,0.0001595,53.2172,133.1402,88.232,271.8855,0.00010751,1.424e-05,0.0,0 STARLINK-5420,1 54798U 22175AS  24052.50272361  .00001424  00000-0  10751-3 0  9997,2 54798  53.2172 133.1402 0001595  88.2320 271.8855 15.08847760 65319,6917.857,95.437,540.825,538.618,0.0
54798.0,STARLINK-5420,PAYLOAD,2024-02-22 11:54:43,15.08839512,0.0001533,53.2168,128.6813,94.761,265.3557,-1.2896e-06,-3.09e-06,0.0,0 STARLINK-5420,1 54798U 22175AS  24053.49633266 -.00000309  00000-0 -12896-5 0  9998,2 54798  53.2168 128.6813 0001533  94.7610 265.3557 15.08839512 65464,6917.882,95.438,540.807,538.686,0.0
54798.0,STARLINK-5420,PAYLOAD,2024-02-23 11:45:30,15.08836086,0.0001558,53.2177,124.2223,97.2589,262.858,-5.1358e-05,-1.105e-05,0.0,0 STARLINK-5420,1 54798U 22175AS  24054.48993951 -.00001105  00000-0 -51358-4 0  9998,2 54798  53.2177 124.2223 0001558  97.2589 262.8580 15.08836086 65619,6917.892,95.438,540.835,538.68,0.0
54798.0,STARLINK-5420,PAYLOAD,2024-02-23 21:17:49,15.08839059,0.0001552,53.2177,122.4379,96.4024,263.7145,-4.1672e-05,-9.51e-06,0.0,0 STARLINK-5420,1 54798U 22175AS  24054.88737829 -.00000951  00000-0 -41672-4 0  9998,2 54798  53.2177 122.4379 0001552  96.4024 263.7145 15.08839059 67836,6917.883,95.438,540.822,538.675,0.0
54798.0,STARLINK-5420,PAYLOAD,2024-02-24 11:36:17,15.08842782,0.0001546,53.2173,119.7612,98.7216,261.3951,0.000113,1.511e-05,0.0,0 STARLINK-5420,1 54798U 22175AS  24055.48353361  .00001511  00000-0  11300-3 0  9995,2 54798  53.2173 119.7612 0001546  98.7216 261.3951 15.08842782 65768,6917.872,95.437,540.806,538.667,0.0
54798.0,STARLINK-5420,PAYLOAD,2024-02-24 13:11:40,15.08843081,0.0001542,53.2172,119.4638,98.4523,261.6644,0.00011457,1.536e-05,0.0,0 STARLINK-5420,1 54798U 22175AS  24055.54977348  .00001536  00000-0  11457-3 0  9999,2 54798  53.2172 119.4638 0001542  98.4523 261.6644 15.08843081 67932,6917.871,95.437,540.803,538.669,0.0
54798.0,STARLINK-5420,PAYLOAD,2024-02-24 21:08:36,15.08843242,0.0001486,53.2171,117.9753,93.1584,266.9578,7.0136e-05,8.29e-06,0.0,0 STARLINK-5420,1 54798U 22175AS  24055.88097459  .00000829  00000-0  70136-4 0  9996,2 54798  53.2171 117.9753 0001486  93.1584 266.9578 15.08843242 67986,6917.87,95.437,540.763,538.707,0.0
54798.0,STARLINK-5420,PAYLOAD,2024-02-25 13:02:27,15.08849455,0.0001644,53.2179,115.002,89.5518,270.5662,0.00016487,2.338e-05,0.0,0 STARLINK-5420,1 54798U 22175AS  24056.54336914  .00002338  00000-0  16487-3 0  9997,2 54798  53.2179 115.0020 0001644  89.5518 270.5662 15.08849455 65921,6917.851,95.437,540.854,538.579,0.0
54798.0,STARLINK-5420,PAYLOAD,2024-02-25 20:59:23,15.08845105,0.0001727,53.218,113.5117,79.7823,280.3364,-1.968e-05,-6.01e-06,0.0,0 STARLINK-5420,1 54798U 22175AS  24056.87457608 -.00000601  00000-0 -19680-4 0  9999,2 54798  53.2180 113.5117 0001727  79.7823 280.3364 15.08845105 68137,6917.865,95.437,540.925,538.535,0.0
54798.0,STARLINK-5420,PAYLOAD,2024-02-26 03:20:56,15.08840811,0.0001669,53.2174,112.3255,78.5867,281.5313,2.0639e-05,4e-07,0.0,0 STARLINK-5420,1 54798U 22175AS  24057.13953860  .00000040  00000-0  20639-4 0  9991,2 54798  53.2174 112.3255 0001669  78.5867 281.5313 15.08840811 66011,6917.878,95.438,540.898,538.588,0.0
54798.0,STARLINK-5420,PAYLOAD,2024-02-26 11:17:51,15.08845578,0.0001642,53.2173,110.84,82.2421,277.8757,2.1214e-05,5e-07,0.0,0 STARLINK-5420,1 54798U 22175AS  24057.47073505  .00000050  00000-0  21214-4 0  9998,2 54798  53.2173 110.8400 0001642  82.2421 277.8757 15.08845578 68224,6917.863,95.437,540.864,538.592,0.0
54798.0,STARLINK-5420,PAYLOAD,2024-02-27 09:33:15,15.08840005,0.0001662,53.2173,106.6759,91.6601,268.4581,7.851e-06,-1.63e-06,0.0,0 STARLINK-5420,1 54798U 22175AS  24058.39809755 -.00000163  00000-0  78510-5 0  9992,2 54798  53.2173 106.6759 0001662  91.6601 268.4581 15.08840005 66207,6917.88,95.438,540.895,538.596,0.0
54798.0,STARLINK-5420,PAYLOAD,2024-02-27 12:44:01,15.0884663,0.0001568,53.2172,106.0798,94.2336,265.8836,-1.3914e-05,-5.1e-06,0.0,0 STARLINK-5420,1 54798U 22175AS  24058.53057272 -.00000510  00000-0 -13914-4 0  9990,2 54798  53.2172 106.0798 0001568  94.2336 265.8836 15.08846630 68387,6917.86,95.437,540.81,538.64,0.0
54798.0,STARLINK-5420,PAYLOAD,2024-02-27 20:40:57,15.08844797,0.0001543,53.2169,104.5922,93.8565,266.2603,-5.1707e-05,-1.111e-05,0.0,0 STARLINK-5420,1 54798U 22175AS  24058.86177391 -.00001111  00000-0 -51707-4 0  9991,2 54798  53.2169 104.5922 0001543  93.8565 266.2603 15.08844797 68432,6917.866,95.437,540.798,538.663,0.0
54798.0,STARLINK-5420,PAYLOAD,2024-02-28 03:02:30,15.08832546,0.000132,53.2171,103.4032,88.6773,271.437,0.00010518,1.386e-05,0.0,0 STARLINK-5420,1 54798U 22175AS  24059.12673730  .00001386  00000-0  10518-3 0  9995,2 54798  53.2171 103.4032 0001320  88.6773 271.4370 15.08832546 66314,6917.903,95.438,540.681,538.855,0.0
54798.0,STARLINK-5420,PAYLOAD,2024-02-28 09:24:02,15.08837107,0.0001302,53.2173,102.2135,90.989,269.1251,0.00014571,2.032e-05,0.0,0 STARLINK-5420,1 54798U 22175AS  24059.39169379  .00002032  00000-0  14571-3 0  9995,2 54798  53.2173 102.2135 0001302  90.9890 269.1251 15.08837107 68517,6917.889,95.438,540.655,538.854,0.0
54798.0,STARLINK-5420,PAYLOAD,2024-02-29 12:25:35,15.08839043,0.0001558,53.2169,97.1601,88.1254,271.9916,4.8572e-05,4.85e-06,0.0,0 STARLINK-5420,1 54798U 22175AS  24060.51777762  .00000485  00000-0  48572-4 0  9991,2 54798  53.2169  97.1601 0001558  88.1254 271.9916 15.08839043 66527,6917.883,95.438,540.826,538.671,0.0
54798.0,STARLINK-5420,PAYLOAD,2024-03-01 09:05:36,15.08842916,0.0001519,53.217,93.2938,87.1251,272.9915,3.6065e-05,2.86e-06,0.0,0 STARLINK-5420,1 54798U 22175AS  24061.37889717  .00000286  00000-0  36065-4 0  9993,2 54798  53.2170  93.2938 0001519  87.1251 272.9915 15.08842916 68819,6917.871,95.437,540.787,538.686,0.0
54798.0,STARLINK-5420,PAYLOAD,2024-03-01 18:37:55,15.08837512,0.0001445,53.2161,91.5088,86.5946,273.5212,5.3261e-05,5.6e-06,0.0,0 STARLINK-5420,1 54798U 22175AS  24061.77633976  .00000560  00000-0  53261-4 0  9993,2 54798  53.2161  91.5088 0001445  86.5946 273.5212 15.08837512 66718,6917.888,95.438,540.753,538.753,0.0
54798.0,STARLINK-5420,PAYLOAD,2024-03-02 08:56:24,15.08834745,0.0001522,53.2164,88.8332,87.8258,272.2909,1.905e-05,1.5e-07,0.0,0 STARLINK-5420,1 54798U 22175AS  24062.37250510  .00000015  00000-0  19050-4 0  9992,2 54798  53.2164  88.8332 0001522  87.8258 272.2909 15.08834745 68961,6917.896,95.438,540.814,538.709,0.0
54798.0,STARLINK-5420,PAYLOAD,2024-03-02 18:28:43,15.08835067,0.0001515,53.2164,87.0489,86.9298,273.1868,4.5519e-05,4.36e-06,0.0,0 STARLINK-5420,1 54798U 22175AS  24062.76994532  .00000436  00000-0  45519-4 0  9990,2 54798  53.2164  87.0489 0001515  86.9298 273.1868 15.08835067 69021,6917.895,95.438,540.809,538.712,0.0
54798.0,STARLINK-5420,PAYLOAD,2024-03-03 05:36:25,15.088361,0.0001582,53.2171,84.9688,94.8069,265.3104,-1.3046e-06,-3.09e-06,0.0,0 STARLINK-5420,1 54798U 22175AS  24063.23362807 -.00000309  00000-0 -13046-5 0  9999,2 54798  53.2171  84.9688 0001582  94.8069 265.3104 15.08836100 66936,6917.892,95.438,540.852,538.663,0.0
